QIANFAN-17              
1 60395U 24140S   25260.89283160  .00000062  00000+0  76380-4 0  9991
2 60395  88.9799 308.3211 0017210  94.7154 265.5963 13.50969701 56541
QIANFAN-18              
1 60396U 24140T   25260.94637109  .00000070  00000+0  90181-4 0  9998
2 60396  88.9790 307.8557 0016401  79.5477 280.7521 13.50971461 55948
QIANFAN-19              
1 61552U 24185A   25260.90081167  .00000404  00000+0  20459-3 0  9996
2 61552  88.9753  87.7848 0005825 205.2152 154.8751 14.14154615 57533
QIANFAN-20              
1 61553U 24185B   25260.95658432  .00000477  00000+0  26890-3 0  9992
2 61553  88.9751  88.0159 0003929 252.0666 108.0089 14.08705148 57412
QIANFAN-21              
1 61554U 24185C   25260.93232587  .00000592  00000+0  25942-3 0  9995
2 61554  88.9668  87.0371 0008603 286.1840  73.8405 14.22417718 57770
QIANFAN-22              
1 61555U 24185D   25260.89563102  .00000212  00000+0  17191-3 0  9997
2 61555  88.9737  88.6590 0004685 252.8574 107.2085 13.86254850 57049
QIANFAN-23              
1 61556U 24185E   25260.92634982  .00000548  00000+0  26996-3 0  9992
2 61556  88.9746  87.6314 0006254 221.5496 138.5217 14.16134842 57601
QIANFAN-24              
1 61557U 24185F   25260.93729193  .00000619  00000+0  26519-3 0  9993
2 61557  88.9727  87.1755 0008424 207.3131 152.7619 14.23621649 57815
